OBJECT_NAME,OBJECT_ID,EPOCH,MEAN_MOTION,ECCENTRICITY,INCLINATION,RA_OF_ASC_NODE,ARG_OF_PERICENTER,MEAN_ANOMALY,EPHEMERIS_TYPE,CLASSIFICATION_TYPE,NORAD_CAT_ID,ELEMENT_SET_NO,REV_AT_EPOCH,BSTAR,MEAN_MOTION_DOT,MEAN_MOTION_DDOT
PERSEUS-M1,2014-033AF,2026-06-14T19:52:50.844864,14.95625064,.00104839,97.9643,109.9216,310.4650,49.5656,0,U,40039,999,65028,.10678055E-3,.1126E-4,0
POLYITAN-1,2014-033AJ,2026-06-15T00:41:55.221504,15.33192699,.00084899,98.0936,192.0858,147.5892,212.5872,0,U,40042,999,65326,.55495063E-3,.17749E-3,0
TIGRISAT,2014-033AK,2026-06-14T23:02:14.403552,14.85155456,.00506575,97.7826,316.0224,82.3480,278.3484,0,U,40043,999,64529,.24494967E-3,.209E-4,0
AEROCUBE 6A,2014-033AM,2026-06-14T08:26:40.386912,14.98083113,.00391415,97.7231,332.3304,27.6491,332.6801,0,U,40045,999,64619,.49752878E-3,.5921E-4,0
AEROCUBE 6B,2014-033AN,2026-06-15T05:23:09.012768,14.99553214,.00384994,97.7236,332.9795,16.1182,344.1256,0,U,40046,999,64646,.35093537E-3,.4319E-4,0
CANX-4,2014-034C,2026-06-15T03:00:32.676480,14.81261362,.00133083,98.3125,41.3628,23.4565,336.7251,0,U,40055,999,64422,.11162188E-3,.814E-5,0
CANX-5,2014-034D,2026-06-15T02:58:19.375104,14.81278591,.00133168,98.3127,41.4046,23.6241,336.5579,0,U,40056,999,63503,.11275153E-3,.823E-5,0
UKUBE-1,2014-037F,2026-06-14T23:40:40.884384,15.13524870,.00025584,98.4228,169.0273,134.2881,225.8558,0,U,40074,999,64822,.42273516E-3,.7498E-4,0
BRITE-PL2 (HEWELIUSZ),2014-049B,2026-06-15T07:08:47.664960,14.94587421,.00152238,97.9096,278.2832,114.0820,246.1994,0,U,40119,999,64116,.13089002E-3,.1359E-4,0
AEROCUBE 5C,2015-058B,2026-06-14T16:33:23.768352,14.91443796,.01306463,64.7679,270.3589,64.2448,297.2080,0,U,40965,999,36528,.20099217E-3,.2193E-4,0
AEROCUBE 7,2015-058C,2026-06-15T07:04:54.778944,14.95715259,.01204089,64.7628,250.7425,62.4393,298.8892,0,U,40966,999,36567,.22392761E-3,.2709E-4,0
FOX-1A (AO-85),2015-058D,2026-06-15T01:43:42.235104,14.90961275,.01303285,64.7762,285.5569,57.4109,303.9507,0,U,40967,999,11325,.20682944E-3,.223E-4,0
SINOD-D 1,2015-058E,2026-06-14T14:30:47.774304,14.95891927,.01188804,64.7761,266.9995,54.1051,307.1029,0,U,40968,999,11627,.25973809E-3,.3177E-4,0
SNAP-3 ALICE,2015-058G,2026-06-15T06:00:32.424192,15.59675006,.00286524,64.7500,110.6240,14.1529,346.0413,0,U,40970,999,11658,.11565216E-2,.95622E-3,0
LMRST-SAT,2015-058H,2026-06-14T18:12:06.849504,14.90580564,.01319476,64.7767,282.8645,59.5717,301.8355,0,U,40971,999,11319,.19481277E-3,.2076E-4,0
SNAP-3 EDDIE,2015-058J,2026-06-15T04:16:14.524032,15.60917892,.00280692,64.7430,101.6137,18.4611,341.7546,0,U,40972,999,11871,.11967482E-2,.103837E-2,0
PROPCUBE 3,2015-058K,2026-06-15T00:01:03.969696,14.94247503,.01239355,64.7689,259.3669,60.7705,300.5735,0,U,40973,999,11447,.22254718E-3,.2604E-4,0
BISONSAT,2015-058L,2026-06-15T06:03:15.927552,15.16151459,.00788577,64.7577,179.9008,48.0771,312.7041,0,U,40974,999,11532,.434633E-3,.8916E-4,0
SNAP-3 JIMI,2015-058M,2026-06-15T06:12:31.077792,15.02283858,.01060561,64.7641,225.8744,56.1610,304.9546,0,U,40975,999,11393,.25462652E-3,.3618E-4,0
PROPCUBE 1 (FLORA),2015-058N,2026-06-15T02:44:12.565248,14.89214211,.01306471,64.7756,301.6610,61.7296,299.6928,0,U,40976,999,11595,.2095872E-3,.2156E-4,0
SINOD-D 3,2015-058P,2026-06-15T00:46:11.060544,14.94004945,.01191494,64.7737,282.5484,58.9833,302.2917,0,U,40977,999,11443,.25830474E-3,.2997E-4,0
HORYU-4,2016-012D,2026-06-15T04:26:33.044352,15.94345425,.00049791,30.9848,93.7180,258.8543,101.1559,0,U,41340,999,57049,.95954173E-3,.380379E-2,.50900862E-4
RAVAN,2016-067B,2026-06-15T05:47:36.396672,15.54518227,.0004713,97.9893,55.5895,37.6149,322.5432,0,U,41849,999,52739,.65706763E-3,.43365E-3,0
CELTEE 1,2016-067C,2026-06-15T03:58:54.706944,15.19664859,.00008045,98.0674,32.5953,122.9897,237.1413,0,U,41850,999,52557,.21076784E-3,.4418E-4,0
OPTICUBE 04,2016-067D,2026-06-15T03:46:06.388032,15.09650711,.00168228,98.0696,18.3349,121.9027,238.3840,0,U,41851,999,52486,.11006401E-3,.1705E-4,0
AEROCUBE 8D,2016-067E,2026-06-15T04:28:19.240320,15.24373380,.00045832,98.0684,36.2057,128.1768,231.9881,0,U,41852,999,52576,.25986946E-3,.6285E-4,0
AEROCUBE 8C,2016-067F,2026-06-15T03:30:15.844608,15.24621420,.00066863,98.0556,33.3928,74.6785,285.5189,0,U,41853,999,52575,.24155146E-3,.5881E-4,0
CORVUS BC2,2017-042X,2026-06-15T06:26:28.269600,15.06283921,.00142068,97.4055,327.6924,116.6452,243.6232,0,U,42846,999,48677,.24685331E-3,.3574E-4,0
CORVUS BC1,2017-042Y,2026-06-14T23:56:25.581120,15.06453506,.00132263,97.4090,328.2449,95.9669,264.3067,0,U,42847,999,48676,.25440595E-3,.3701E-4,0
MAKERSAT 0,2017-073D,2026-06-15T03:43:31.291392,15.32039776,.01051825,97.4630,48.6587,280.3452,78.5946,0,U,43016,999,46615,.39907099E-3,.14625E-3,0
